NORAD_CAT_ID,OBJECT_NAME,OBJECT_TYPE,EPOCH,MEAN_MOTION,ECCENTRICITY,INCLINATION,RA_OF_ASC_NODE,ARG_OF_PERICENTER,MEAN_ANOMALY,BSTAR,MEAN_MOTION_DOT,MEAN_MOTION_DDOT,TLE_LINE0,TLE_LINE1,TLE_LINE2,SEMIMAJOR_AXIS,PERIOD,APOGEE,PERIGEE,DECAYED
53936.0,STARLINK-4791,PAYLOAD,2022-10-17 14:00:01,15.73198272,0.0001187,53.2162,141.0198,110.2087,116.1244,0.00070183,0.00099038,0.0,0 STARLINK-4791,1 53936U 22119BC  22290.58334491  .00099038  00000-0  70183-3 0  9994,2 53936  53.2162 141.0198 0001187 110.2087 116.1244 15.73198272  1305,6727.9,91.533,350.564,348.966,0.0
53936.0,STARLINK-4791,PAYLOAD,2022-10-17 22:00:00,15.73260908,0.0001069,53.2166,139.3733,96.3353,218.9451,-0.00054692,-0.00076876,0.0,0 STARLINK-4791,1 53936U 22119BC  22290.91667824 -.00076876  00000-0 -54692-3 0  9994,2 53936  53.2166 139.3733 0001069  96.3353 218.9451 15.73260908  4044,6727.722,91.53,350.306,348.867,0.0
53936.0,STARLINK-4791,PAYLOAD,2022-10-18 12:00:00,15.73146443,8.950000000000001e-05,53.2166,136.4846,110.6853,270.2683,0.00031549,0.00043786,0.0,0 STARLINK-4791,1 53936U 22119BC  22291.50001157  .00043786  00000-0  31549-3 0  9999,2 53936  53.2166 136.4846 0000895 110.6853 270.2683 15.73146443  4133,6728.0480000000025,91.536,350.515,349.311,0.0
53936.0,STARLINK-4791,PAYLOAD,2022-10-18 14:00:01,15.73149589,8.72e-05,53.2167,136.0725,111.3349,21.8363,0.00040493,0.00056469,0.0,0 STARLINK-4791,1 53936U 22119BC  22291.58334491  .00056469  00000-0  40493-3 0  9997,2 53936  53.2167 136.0725 0000872 111.3349  21.8363 15.73149589  1304,6728.0390000000025,91.536,350.491,349.31699999999995,0.0
53936.0,STARLINK-4791,PAYLOAD,2022-10-18 20:00:01,15.7320506,0.0001281999999999,53.2174,134.8181,99.6498,10.2371,-1.0029e-05,-2.027e-05,0.0,0 STARLINK-4791,1 53936U 22119BC  22291.83334491 -.00002027  00000-0 -10029-4 0  9991,2 53936  53.2174 134.8181 0001282  99.6498  10.2371 15.73205060  4191,6727.880999999999,91.533,350.608,348.8830000000001,0.0
53936.0,STARLINK-4791,PAYLOAD,2022-10-18 22:00:00,15.73204476,0.0001267,53.2175,134.4061,99.4564,122.6642,-7.908100000000002e-07,-7.31e-06,0.0,0 STARLINK-4791,1 53936U 22119BC  22291.91667824 -.00000731  00000-0 -79081-6 0  9994,2 53936  53.2175 134.4061 0001267  99.4564 122.6642 15.73204476  1309,6727.882,91.533,350.6,348.895,0.0
53936.0,STARLINK-4791,PAYLOAD,2022-10-19 14:00:01,15.732154,9.98e-05,53.2163,131.1243,103.9909,295.965,0.00033131,0.00046163,0.0,0 STARLINK-4791,1 53936U 22119BC  22292.58334491  .00046163  00000-0  33131-3 0  9999,2 53936  53.2163 131.1243 0000998 103.9909 295.9650 15.73215400  1308,6727.851,91.532,350.38800000000015,349.045,0.0
53936.0,STARLINK-4791,PAYLOAD,2022-10-19 22:00:00,15.73210221,0.0001082,53.2164,129.4768,86.2716,42.6598,0.00014642,0.00019987,0.0,0 STARLINK-4791,1 53936U 22119BC  22292.91667824  .00019987  00000-0  14642-3 0  9995,2 53936  53.2164 129.4768 0001082  86.2716  42.6598 15.73210221  4368,6727.866,91.533,350.459,349.00300000000016,0.0
53936.0,STARLINK-4791,PAYLOAD,2022-10-20 14:00:01,15.73210969,0.0001220999999999,53.2163,126.176,96.8276,209.9987,-0.00031029,-0.0004396,0.0,0 STARLINK-4791,1 53936U 22119BC  22293.58334491 -.00043960  00000-0 -31029-3 0  9998,2 53936  53.2163 126.1760 0001221  96.8276 209.9987 15.73210969  4466,6727.864000000001,91.533,350.55,348.907,0.0
53936.0,STARLINK-4791,PAYLOAD,2022-10-20 22:00:00,15.73156564,0.0001135,53.216,124.5253,82.5379,313.2161,0.00060061,0.00084364,0.0,0 STARLINK-4791,1 53936U 22119BC  22293.91667824  .00084364  00000-0  60061-3 0  9993,2 53936  53.2160 124.5253 0001135  82.5379 313.2161 15.73156564  1305,6728.019,91.536,350.648,349.12,0.0
53936.0,STARLINK-4791,PAYLOAD,2022-10-21 06:00:00,15.73254105,8.7e-05,53.2156,122.8774,91.3105,33.3588,-0.00035789,-0.00050659,0.0,0 STARLINK-4791,1 53936U 22119BC  22294.25001157 -.00050659  00000-0 -35789-3 0  9993,2 53936  53.2156 122.8774 0000870  91.3105  33.3588 15.73254105  4574,6727.741,91.53,350.191,349.021,0.0
53936.0,STARLINK-4791,PAYLOAD,2022-10-21 14:00:01,15.7321828,7.91e-05,53.2157,121.2263,98.6205,115.0457,0.00038386,0.00053639,0.0,0 STARLINK-4791,1 53936U 22119BC  22294.58334491  .00053639  00000-0  38386-3 0  9994,2 53936  53.2157 121.2263 0000791  98.6205 115.0457 15.73218280  4627,6727.843000000003,91.532,350.24,349.176,0.0
53936.0,STARLINK-4791,PAYLOAD,2022-10-21 20:00:01,15.73262047,9.55e-05,53.2156,119.9919,76.574,113.792,-0.00072338,-0.00101193,0.0,0 STARLINK-4791,1 53936U 22119BC  22294.83334491 -.00101193  00000-0 -72338-3 0  9998,2 53936  53.2156 119.9919 0000955  76.5740 113.7920 15.73262047  4663,6727.718000000003,91.53,350.226,348.941,0.0
53936.0,STARLINK-4791,PAYLOAD,2022-10-21 22:00:00,15.73237361,0.0001004,53.2157,119.5798,74.8008,227.8152,-0.00057809,-0.00081099,0.0,0 STARLINK-4791,1 53936U 22119BC  22294.91667824 -.00081099  00000-0 -57809-3 0  9994,2 53936  53.2157 119.5798 0001004  74.8008 227.8152 15.73237361  1302,6727.7890000000025,91.531,350.329,348.978,0.0
53936.0,STARLINK-4791,PAYLOAD,2022-10-22 14:00:01,15.73221711,0.0001146,53.2155,116.2789,85.2099,35.2397,5.6816e-06,1.78e-06,0.0,0 STARLINK-4791,1 53936U 22119BC  22295.58334491  .00000178  00000-0  56816-5 0  9995,2 53936  53.2155 116.2789 0001146  85.2099  35.2397 15.73221711  4786,6727.833000000001,91.532,350.469,348.927,0.0
53936.0,STARLINK-4791,PAYLOAD,2022-10-22 22:00:00,15.73188835,0.0001066999999999,53.215,114.631,65.7561,143.6755,0.00063764,0.00089786,0.0,0 STARLINK-4791,1 53936U 22119BC  22295.91667824  .00089786  00000-0  63764-3 0  9991,2 53936  53.2150 114.6310 0001067  65.7561 143.6755 15.73188835  1308,6727.927,91.534,350.51,349.074,0.0
53936.0,STARLINK-4791,PAYLOAD,2022-10-23 06:00:00,15.73250828,0.0001001,53.2147,112.9795,77.1925,221.2062,5.396300000000001e-05,6.976e-05,0.0,0 STARLINK-4791,1 53936U 22119BC  22296.25001157  .00006976  00000-0  53963-4 0  9991,2 53936  53.2147 112.9795 0001001  77.1925 221.2062 15.73250828  4883,6727.75,91.53,350.289,348.94199999999995,0.0
53936.0,STARLINK-4791,PAYLOAD,2022-10-23 14:00:01,15.73274939,0.0001048,53.215,111.3299,80.1762,307.1682,-0.00019335,-0.00027752,0.0,0 STARLINK-4791,1 53936U 22119BC  22296.58334491 -.00027752  00000-0 -19335-3 0  9998,2 53936  53.2150 111.3299 0001048  80.1762 307.1682 15.73274939  1308,6727.682,91.529,350.25199999999984,348.841,0.0
53936.0,STARLINK-4791,PAYLOAD,2022-10-23 22:00:00,15.73240954,0.0001175,53.215,109.6819,64.793,51.5587,-0.00051868,-0.00072911,0.0,0 STARLINK-4791,1 53936U 22119BC  22296.91667824 -.00072911  00000-0 -51868-3 0  9998,2 53936  53.2150 109.6819 0001175  64.7930  51.5587 15.73240954  4994,6727.778,91.531,350.434,348.853,0.0
53936.0,STARLINK-4791,PAYLOAD,2022-10-24 14:00:01,15.73078328,0.00013,53.215,106.3812,74.2375,219.909,0.00029957,0.00041412,0.0,0 STARLINK-4791,1 53936U 22119BC  22297.58334491  .00041412  00000-0  29957-3 0  9997,2 53936  53.2150 106.3812 0001300  74.2375 219.9090 15.73078328  5095,6728.2419999999975,91.54,350.982,349.232,0.0
53936.0,STARLINK-4791,PAYLOAD,2022-10-24 22:00:00,15.73090321,0.0001231999999999,53.2145,104.7335,58.9933,323.9451,0.0013233,0.00188433,0.0,0 STARLINK-4791,1 53936U 22119BC  22297.91667824  .00188433  00000-0  13233-2 0  9997,2 53936  53.2145 104.7335 0001232  58.9933 323.9451 15.73090321  1308,6728.208000000001,91.54,350.902,349.244,0.0
53936.0,STARLINK-4791,PAYLOAD,2022-10-25 06:00:00,15.732231400000002,8.609999999999999e-05,53.2145,103.082,62.2325,49.5823,-0.00020115,-0.0002878,0.0,0 STARLINK-4791,1 53936U 22119BC  22298.25001157 -.00028780  00000-0 -20115-3 0  9994,2 53936  53.2145 103.0820 0000861  62.2325  49.5823 15.73223140  5203,6727.829000000002,91.532,350.273,349.115,0.0
53936.0,STARLINK-4791,PAYLOAD,2022-10-25 14:00:01,15.73208318,8.71e-05,53.2148,101.4329,58.792,141.9542,1.393e-05,1.337e-05,0.0,0 STARLINK-4791,1 53936U 22119BC  22298.58334491  .00001337  00000-0  13930-4 0  9995,2 53936  53.2148 101.4329 0000871  58.7920 141.9542 15.73208318  1306,6727.871,91.533,350.32199999999995,349.15,0.0
53936.0,STARLINK-4791,PAYLOAD,2022-10-25 22:00:01,15.73163938,0.0001133,53.215,99.7847,45.5199,244.2413,0.00046268,0.00064715,0.0,0 STARLINK-4791,1 53936U 22119BC  22298.91668981  .00064715  00000-0  46268-3 0  9994,2 53936  53.2150  99.7847 0001133  45.5199 244.2413 15.73163938  1309,6727.998000000001,91.535,350.625,349.101,0.0
53936.0,STARLINK-4791,PAYLOAD,2022-10-26 06:00:00,15.73198259,0.0001100999999999,53.2153,98.1331,56.512,322.0954,0.00018575,0.00025526,0.0,0 STARLINK-4791,1 53936U 22119BC  22299.25001157  .00025526  00000-0  18575-3 0  9995,2 53936  53.2153  98.1331 0001101  56.5120 322.0954 15.73198259  5352,6727.9,91.533,350.506,349.024,0.0
53936.0,STARLINK-4791,PAYLOAD,2022-10-26 14:00:01,15.73211092,0.000132,53.2153,96.4842,57.3425,50.2127,-2.4826e-05,-4.104e-05,0.0,0 STARLINK-4791,1 53936U 22119BC  22299.58334491 -.00004104  00000-0 -24826-4 0  9999,2 53936  53.2153  96.4842 0001320  57.3425  50.2127 15.73211092  1304,6727.864000000001,91.533,350.617,348.84,0.0
53936.0,STARLINK-4791,PAYLOAD,2022-10-26 22:00:00,15.73208447,0.0001514,53.2147,94.836,52.1049,144.3893,0.00042811,0.00059914,0.0,0 STARLINK-4791,1 53936U 22119BC  22299.91667824  .00059914  00000-0  42811-3 0  9995,2 53936  53.2147  94.8360 0001514  52.1049 144.3893 15.73208447  1309,6727.871,91.533,350.755,348.717,0.0
53936.0,STARLINK-4791,PAYLOAD,2022-10-27 14:00:01,15.73261113,0.0001307,53.2154,91.5355,49.9315,324.6402,-0.0003799999999999,-0.0005375,0.0,0 STARLINK-4791,1 53936U 22119BC  22300.58335648 -.00053750  00000-0 -38000-3 0  9996,2 53936  53.2154  91.5355 0001307  49.9315 324.6402 15.73261113  5565,6727.721,91.53,350.465,348.707,0.0
53936.0,STARLINK-4791,PAYLOAD,2022-10-27 22:00:00,15.73228182,0.0001476,53.2154,89.8871,40.1747,63.3146,3.5698e-05,4.398e-05,0.0,0 STARLINK-4791,1 53936U 22119BC  22300.91667824  .00004398  00000-0  35698-4 0  9990,2 53936  53.2154  89.8871 0001476  40.1747  63.3146 15.73228182  1306,6727.815,91.532,350.673,348.68699999999984,0.0
